{
  "type": "FeatureCollection",
  "features": [
    {
      "type": "Feature",
      "properties": {
        "norad_id": 30454,
        "name": "FENGYUN 1C DEB",
        "group": "fengyun-1c-debris",
        "lat": -76.15956403320041,
        "lon": 5.284136993020317,
        "alt_km": 921.5917706855125,
        "timestamp": "2025-12-26T18:39:32.556769+00:00",
        "meta_object_name": "FENGYUN 1C DEB",
        "meta_object_id": "1999-025AFR",
        "meta_epoch": "2025-12-26T09:34:31.692288",
        "meta_mean_motion": 14.15483487,
        "meta_eccentricity": 0.0171426,
        "meta_inclination": 98.1346,
        "meta_ra_of_asc_node": 329.4502,
        "meta_arg_of_pericenter": 155.0776,
        "meta_mean_anomaly": 357.0553,
        "meta_ephemeris_type": 0,
        "meta_classification_type": "U",
        "meta_norad_cat_id": 30454,
        "meta_element_set_no": 999,
        "meta_rev_at_epoch": 96153,
        "meta_bstar": 0.001658943,
        "meta_mean_motion_dot": 3.7e-05,
        "meta_mean_motion_ddot": 0,
        "tle_line1": "1 30454U 99025AFR 25360.39897792  .00003700  00000+0  16589-2 0  9991",
        "tle_line2": "2 30454  98.1346 329.4502 0171426 155.0776 357.0553 14.15483487961533"
      },
      "geometry": {
        "type": "Point",
        "coordinates": [
          5.284136993020317,
          -76.15956403320041
        ]
      }
    },
    {
      "type": "Feature",
      "properties": {
        "norad_id": 30462,
        "name": "FENGYUN 1C DEB",
        "group": "fengyun-1c-debris",
        "lat": -76.6750561364076,
        "lon": 29.608621671098078,
        "alt_km": 842.9058597574685,
        "timestamp": "2025-12-26T18:39:32.556778+00:00",
        "meta_object_name": "FENGYUN 1C DEB",
        "meta_object_id": "1999-025AFZ",
        "meta_epoch": "2025-12-26T11:17:15.108000",
        "meta_mean_motion": 14.06274443,
        "meta_eccentricity": 0.01391137,
        "meta_inclination": 98.8179,
        "meta_ra_of_asc_node": 348.3612,
        "meta_arg_of_pericenter": 211.4048,
        "meta_mean_anomaly": 313.0615,
        "meta_ephemeris_type": 0,
        "meta_classification_type": "U",
        "meta_norad_cat_id": 30462,
        "meta_element_set_no": 999,
        "meta_rev_at_epoch": 96986,
        "meta_bstar": 4.6663108e-05,
        "meta_mean_motion_dot": 4e-07,
        "meta_mean_motion_ddot": 0,
        "tle_line1": "1 30462U 99025AFZ 25360.47031375  .00000040  00000+0  46663-4 0  9998",
        "tle_line2": "2 30462  98.8179 348.3612 0139113 211.4048 313.0615 14.06274443969866"
      },
      "geometry": {
        "type": "Point",
        "coordinates": [
          29.608621671098078,
          -76.6750561364076
        ]
      }
    },
    {
      "type": "Feature",
      "properties": {
        "norad_id": 30464,
        "name": "FENGYUN 1C DEB",
        "group": "fengyun-1c-debris",
        "lat": 9.341859906468269,
        "lon": -127.69567755080047,
        "alt_km": 807.193238711995,
        "timestamp": "2025-12-26T18:39:32.556788+00:00",
        "meta_object_name": "FENGYUN 1C DEB",
        "meta_object_id": "1999-025AGB",
        "meta_epoch": "2025-12-26T09:27:00.950400",
        "meta_mean_motion": 14.10250642,
        "meta_eccentricity": 0.01087288,
        "meta_inclination": 98.8352,
        "meta_ra_of_asc_node": 50.4612,
        "meta_arg_of_pericenter": 219.717,
        "meta_mean_anomaly": 164.7182,
        "meta_ephemeris_type": 0,
        "meta_classification_type": "U",
        "meta_norad_cat_id": 30464,
        "meta_element_set_no": 999,
        "meta_rev_at_epoch": 97256,
        "meta_bstar": 5.9137189e-05,
        "meta_mean_motion_dot": 6.7e-07,
        "meta_mean_motion_ddot": 0,
        "tle_line1": "1 30464U 99025AGB 25360.39376100  .00000067  00000+0  59137-4 0  9998",
        "tle_line2": "2 30464  98.8352  50.4612 0108728 219.7170 164.7182 14.10250642972568"
      },
      "geometry": {
        "type": "Point",
        "coordinates": [
          -127.69567755080047,
          9.341859906468269
        ]
      }
    },
    {
      "type": "Feature",
      "properties": {
        "norad_id": 30465,
        "name": "FENGYUN 1C DEB",
        "group": "fengyun-1c-debris",
        "lat": 46.12847577660811,
        "lon": -81.41440035273645,
        "alt_km": 784.0651526839702,
        "timestamp": "2025-12-26T18:39:32.556798+00:00",
        "meta_object_name": "FENGYUN 1C DEB",
        "meta_object_id": "1999-025AGC",
        "meta_epoch": "2025-12-26T04:55:48.148896",
        "meta_mean_motion": 14.34004327,
        "meta_eccentricity": 0.00163303,
        "meta_inclination": 98.8284,
        "meta_ra_of_asc_node": 88.6985,
        "meta_arg_of_pericenter": 348.0303,
        "meta_mean_anomaly": 73.5001,
        "meta_ephemeris_type": 0,
        "meta_classification_type": "U",
        "meta_norad_cat_id": 30465,
        "meta_element_set_no": 999,
        "meta_rev_at_epoch": 97551,
        "meta_bstar": 0.0018241428,
        "meta_mean_motion_dot": 5.058e-05,
        "meta_mean_motion_ddot": 0,
        "tle_line1": "1 30465U 99025AGC 25360.20541839  .00005058  00000+0  18241-2 0  9996",
        "tle_line2": "2 30465  98.8284  88.6985 0016330 348.0303  73.5001 14.34004327975518"
      },
      "geometry": {
        "type": "Point",
        "coordinates": [
          -81.41440035273645,
          46.12847577660811
        ]
      }
    },
    {
      "type": "Feature",
      "properties": {
        "norad_id": 30466,
        "name": "FENGYUN 1C DEB",
        "group": "fengyun-1c-debris",
        "lat": -38.762041939011596,
        "lon": -146.46869490767907,
        "alt_km": 869.2376443676249,
        "timestamp": "2025-12-26T18:39:32.556808+00:00",
        "meta_object_name": "FENGYUN 1C DEB",
        "meta_object_id": "1999-025AGD",
        "meta_epoch": "2025-12-26T09:30:05.059296",
        "meta_mean_motion": 14.22597795,
        "meta_eccentricity": 0.01158996,
        "meta_inclination": 98.6538,
        "meta_ra_of_asc_node": 40.1803,
        "meta_arg_of_pericenter": 344.538,
        "meta_mean_anomaly": 82.7224,
        "meta_ephemeris_type": 0,
        "meta_classification_type": "U",
        "meta_norad_cat_id": 30466,
        "meta_element_set_no": 999,
        "meta_rev_at_epoch": 97545,
        "meta_bstar": 0.001014023,
        "meta_mean_motion_dot": 2.384e-05,
        "meta_mean_motion_ddot": 0,
        "tle_line1": "1 30466U 99025AGD 25360.39589189  .00002384  00000+0  10140-2 0  9996",
        "tle_line2": "2 30466  98.6538  40.1803 0115899 344.5380  82.7224 14.22597795975452"
      },
      "geometry": {
        "type": "Point",
        "coordinates": [
          -146.46869490767907,
          -38.762041939011596
        ]
      }
    },
    {
      "type": "Feature",
      "properties": {
        "norad_id": 30467,
        "name": "FENGYUN 1C DEB",
        "group": "fengyun-1c-debris",
        "lat": 71.43390182525296,
        "lon": -124.97928335042074,
        "alt_km": 783.0097398771541,
        "timestamp": "2025-12-26T18:39:32.556818+00:00",
        "meta_object_name": "FENGYUN 1C DEB",
        "meta_object_id": "1999-025AGE",
        "meta_epoch": "2025-12-26T15:21:39.254688",
        "meta_mean_motion": 14.17322077,
        "meta_eccentricity": 0.00650982,
        "meta_inclination": 98.6776,
        "meta_ra_of_asc_node": 27.842,
        "meta_arg_of_pericenter": 88.0572,
        "meta_mean_anomaly": 37.3632,
        "meta_ephemeris_type": 0,
        "meta_classification_type": "U",
        "meta_norad_cat_id": 30467,
        "meta_element_set_no": 999,
        "meta_rev_at_epoch": 97374,
        "meta_bstar": 0.00085839325,
        "meta_mean_motion_dot": 1.73e-05,
        "meta_mean_motion_ddot": 0,
        "tle_line1": "1 30467U 99025AGE 25360.64003767  .00001730  00000+0  85839-3 0  9990",
        "tle_line2": "2 30467  98.6776  27.8420 0065098  88.0572  37.3632 14.17322077973744"
      },
      "geometry": {
        "type": "Point",
        "coordinates": [
          -124.97928335042074,
          71.43390182525296
        ]
      }
    },
    {
      "type": "Feature",
      "properties": {
        "norad_id": 30468,
        "name": "FENGYUN 1C DEB",
        "group": "fengyun-1c-debris",
        "lat": -49.22108332283187,
        "lon": -108.08728383279696,
        "alt_km": 861.6335721125279,
        "timestamp": "2025-12-26T18:39:32.556828+00:00",
        "meta_object_name": "FENGYUN 1C DEB",
        "meta_object_id": "1999-025AGF",
        "meta_epoch": "2025-12-26T04:20:21.463008",
        "meta_mean_motion": 14.20789187,
        "meta_eccentricity": 0.00713086,
        "meta_inclination": 98.9212,
        "meta_ra_of_asc_node": 81.8032,
        "meta_arg_of_pericenter": 0.726,
        "meta_mean_anomaly": 59.7764,
        "meta_ephemeris_type": 0,
        "meta_classification_type": "U",
        "meta_norad_cat_id": 30468,
        "meta_element_set_no": 999,
        "meta_rev_at_epoch": 97001,
        "meta_bstar": 0.0014615636,
        "meta_mean_motion_dot": 3.193e-05,
        "meta_mean_motion_ddot": 0,
        "tle_line1": "1 30468U 99025AGF 25360.18080397  .00003193  00000+0  14616-2 0  9993",
        "tle_line2": "2 30468  98.9212  81.8032 0071308   0.7260  59.7764 14.20789187970012"
      },
      "geometry": {
        "type": "Point",
        "coordinates": [
          -108.08728383279696,
          -49.22108332283187
        ]
      }
    }
  ]
}